ONEWEB-0150             
1 48047U 21025F   24240.31855790 -.00000211  00000+0 -61359-3 0  9995
2 48047  87.8862  91.3380 0001835  82.8130 277.3207 13.13470327167055
ONEWEB-0107             
1 48048U 21025G   24240.32014048 -.00000188  00000+0 -55083-3 0  9990
2 48048  87.8862  91.3356 0001997  84.2548 275.8808 13.13471425167035
ONEWEB-0101             
1 48049U 21025H   24240.28364706  .00000216  00000+0  55643-3 0  9997
2 48049  87.8870  91.3636 0001669  86.0214 274.1106 13.13470056167001
ONEWEB-0113             
1 48050U 21025J   24240.33759933  .00000211  00000+0  54275-3 0  9990
2 48050  87.8867  91.3339 0001567  80.8768 279.2539 13.13471475167093
ONEWEB-0112             
1 48051U 21025K   24240.32489790 -.00000100  00000+0 -30901-3 0  9990
2 48051  87.8862  91.3322 0001710  80.4833 279.6489 13.13469768167102
ONEWEB-0156             
1 48052U 21025L   24240.33442663  .00000107  00000+0  25736-3 0  9995
2 48052  87.8866  91.3303 0001722  81.9171 278.2153 13.13470401167086
ONEWEB-0161             
1 48053U 21025M   24240.30743937 -.00000309  00000+0 -88041-3 0  9995
2 48053  87.8870  91.3446 0001789  87.5666 272.5668 13.13471885167012
